{"type": "FeatureCollection", "features": [ {"type": "Feature", "properties": {"norad_id": 41556, "name": "ZIYUAN 3-02 (ZY 3-02)", "group": "resource", "lat": -81.54393071883285, "lon": 131.2519210508882, "alt_km": 506.21683424814637, "timestamp": "2025-12-22T05:49:03.139653+00:00", "meta": {"OBJECT_NAME": "ZIYUAN 3-02 (ZY 3-02)", "OBJECT_ID": "2016-033A", "EPOCH": "2025-12-21T20:43:21.296352", "MEAN_MOTION": 15.21174129, "ECCENTRICITY": 0.0011154, "INCLINATION": 97.4034, "RA_OF_ASC_NODE": 69.8785, "ARG_OF_PERICENTER": 211.9635, "MEAN_ANOMALY": 148.0925, "EPHEMERIS_TYPE": 0, "CLASSIFICATION_TYPE": "U", "NORAD_CAT_ID": 41556, "ELEMENT_SET_NO": 999, "REV_AT_EPOCH": 53102, "BSTAR": 0.00025902, "MEAN_MOTION_DOT": 5.713e-05, "MEAN_MOTION_DDOT": 0}, "tle": {"line1": "1 41556U 16033A   25355.86344093  .00005713  00000+0  25902-3 0  9997", "line2": "2 41556  97.4034  69.8785 0011154 211.9635 148.0925 15.21174129531025"}}, "geometry": {"type": "Point", "coordinates": [131.2519210508882, -81.54393071883285]}}, {"type": "Feature", "properties": {"norad_id": 41599, "name": "CARTOSAT-2C", "group": "resource", "lat": 32.36859837572937, "lon": -121.83131952225752, "alt_km": 509.53579190330584, "timestamp": "2025-12-22T05:49:03.139664+00:00", "meta": {"OBJECT_NAME": "CARTOSAT-2C", "OBJECT_ID": "2016-040A", "EPOCH": "2025-12-21T18:06:24.688224", "MEAN_MOTION": 15.19188008, "ECCENTRICITY": 0.0011021, "INCLINATION": 97.4756, "RA_OF_ASC_NODE": 52.9115, "ARG_OF_PERICENTER": 34.9019, "MEAN_ANOMALY": 325.2936, "EPHEMERIS_TYPE": 0, "CLASSIFICATION_TYPE": "U", "NORAD_CAT_ID": 41599, "ELEMENT_SET_NO": 999, "REV_AT_EPOCH": 52677, "BSTAR": 0.00012803, "MEAN_MOTION_DOT": 2.628e-05, "MEAN_MOTION_DDOT": 0}, "tle": {"line1": "1 41599U 16040A   25355.75445241  .00002628  00000+0  12803-3 0  9995", "line2": "2 41599  97.4756  52.9115 0011021  34.9019 325.2936 15.19188008526770"}}, "geometry": {"type": "Point", "coordinates": [-121.83131952225752, 32.36859837572937]}}, {"type": "Feature", "properties": {"norad_id": 41601, "name": "SKYSAT-C1", "group": "resource", "lat": -57.54944177022822, "lon": 43.83128049538246, "alt_km": 474.03352688228006, "timestamp": "2025-12-22T05:49:03.139674+00:00", "meta": {"OBJECT_NAME": "SKYSAT-C1", "OBJECT_ID": "2016-040C", "EPOCH": "2025-12-21T01:52:04.162944", "MEAN_MOTION": 15.32727522, "ECCENTRICITY": 0.00014088, "INCLINATION": 96.9809, "RA_OF_ASC_NODE": 31.6216, "ARG_OF_PERICENTER": 345.105, "MEAN_ANOMALY": 15.0151, "EPHEMERIS_TYPE": 0, "CLASSIFICATION_TYPE": "U", "NORAD_CAT_ID": 41601, "ELEMENT_SET_NO": 999, "REV_AT_EPOCH": 53055, "BSTAR": 0.00019483176, "MEAN_MOTION_DOT": 6.086e-05, "MEAN_MOTION_DDOT": 0}, "tle": {"line1": "1 41601U 16040C   25355.07782596  .00006086  00000+0  19483-3 0  9994", "line2": "2 41601  96.9809  31.6216 0001408 345.1050  15.0151 15.32727522530552"}}, "geometry": {"type": "Point", "coordinates": [43.83128049538246, -57.54944177022822]}}, {"type": "Feature", "properties": {"norad_id": 41603, "name": "LAPAN-A3", "group": "resource", "lat": 48.192259224156, "lon": -14.607307045543502, "alt_km": 469.13935644305275, "timestamp": "2025-12-22T05:49:03.139686+00:00", "meta": {"OBJECT_NAME": "LAPAN-A3", "OBJECT_ID": "2016-040E", "EPOCH": "2025-12-21T20:11:51.897696", "MEAN_MOTION": 15.31619533, "ECCENTRICITY": 0.0008838, "INCLINATION": 97.1426, "RA_OF_ASC_NODE": 353.0666, "ARG_OF_PERICENTER": 296.6618, "MEAN_ANOMALY": 63.3719, "EPHEMERIS_TYPE": 0, "CLASSIFICATION_TYPE": "U", "NORAD_CAT_ID": 41603, "ELEMENT_SET_NO": 999, "REV_AT_EPOCH": 52765, "BSTAR": 0.00011699, "MEAN_MOTION_DOT": 3.501e-05, "MEAN_MOTION_DDOT": 0}, "tle": {"line1": "1 41603U 16040E   25355.84157289  .00003501  00000+0  11699-3 0  9996", "line2": "2 41603  97.1426 353.0666 0008838 296.6618  63.3719 15.31619533527650"}}, "geometry": {"type": "Point", "coordinates": [-14.607307045543502, 48.192259224156]}}, {"type": "Feature", "properties": {"norad_id": 41604, "name": "BIROS", "group": "resource", "lat": 59.94295426181677, "lon": -139.53538875047886, "alt_km": 284.88617143420015, "timestamp": "2025-12-22T05:49:03.139696+00:00", "meta": {"OBJECT_NAME": "BIROS", "OBJECT_ID": "2016-040F", "EPOCH": "2025-12-21T14:14:39.097248", "MEAN_MOTION": 15.9302995, "ECCENTRICITY": 0.0003656, "INCLINATION": 97.0687, "RA_OF_ASC_NODE": 27.4032, "ARG_OF_PERICENTER": 133.1606, "MEAN_ANOMALY": 226.9975, "EPHEMERIS_TYPE": 0, "CLASSIFICATION_TYPE": "U", "NORAD_CAT_ID": 41604, "ELEMENT_SET_NO": 999, "REV_AT_EPOCH": 53013, "BSTAR": 0.00059369, "MEAN_MOTION_DOT": 0.00205583, "MEAN_MOTION_DDOT": 1.7815e-05}, "tle": {"line1": "1 41604U 16040F   25355.59350807  .00205583  17815-4  59369-3 0  9997", "line2": "2 41604  97.0687  27.4032 0003656 133.1606 226.9975 15.93029950530137"}}, "geometry": {"type": "Point", "coordinates": [-139.53538875047886, 59.94295426181677]}}, {"type": "Feature", "properties": {"norad_id": 41727, "name": "GAOFEN-3", "group": "resource", "lat": 13.598787707873274, "lon": -0.36573696288548135, "alt_km": 751.570934327412, "timestamp": "2025-12-22T05:49:03.139707+00:00", "meta": {"OBJECT_NAME": "GAOFEN-3", "OBJECT_ID": "2016-049A", "EPOCH": "2025-12-21T21:25:43.028832", "MEAN_MOTION": 14.4221515, "ECCENTRICITY": 0.0001216, "INCLINATION": 98.4031, "RA_OF_ASC_NODE": 1.3393, "ARG_OF_PERICENTER": 57.0274, "MEAN_ANOMALY": 303.1033, "EPHEMERIS_TYPE": 0, "CLASSIFICATION_TYPE": "U", "NORAD_CAT_ID": 41727, "ELEMENT_SET_NO": 999, "REV_AT_EPOCH": 49309, "BSTAR": -2.0136e-05, "MEAN_MOTION_DOT": -1.1e-06, "MEAN_MOTION_DDOT": 0}, "tle": {"line1": "1 41727U 16049A   25355.89285913 -.00000110  00000+0 -20136-4 0  9995", "line2": "2 41727  98.4031   1.3393 0001216  57.0274 303.1033 14.42215150493095"}}, "geometry": {"type": "Point", "coordinates": [-0.36573696288548135, 13.598787707873274]}}, {"type": "Feature", "properties": {"norad_id": 41771, "name": "SKYSAT-C4", "group": "resource", "lat": -28.55538057110046, "lon": -162.83002784251124, "alt_km": 444.5012765712909, "timestamp": "2025-12-22T05:49:03.139718+00:00", "meta": {"OBJECT_NAME": "SKYSAT-C4", "OBJECT_ID": "2016-058B", "EPOCH": "2025-12-21T19:34:26.873184", "MEAN_MOTION": 15.4248889, "ECCENTRICITY": 0.0002305, "INCLINATION": 96.9359, "RA_OF_ASC_NODE": 20.5624, "ARG_OF_PERICENTER": 127.7132, "MEAN_ANOMALY": 232.4326, "EPHEMERIS_TYPE": 0, "CLASSIFICATION_TYPE": "U", "NORAD_CAT_ID": 41771, "ELEMENT_SET_NO": 999, "REV_AT_EPOCH": 51807, "BSTAR": 0.00030446, "MEAN_MOTION_DOT": 0.00013118, "MEAN_MOTION_DDOT": 0}, "tle": {"line1": "1 41771U 16058B   25355.81558881  .00013118  00000+0  30446-3 0  9997", "line2": "2 41771  96.9359  20.5624 0002305 127.7132 232.4326 15.42488890518077"}}, "geometry": {"type": "Point", "coordinates": [-162.83002784251124, -28.55538057110046]}}, {"type": "Feature", "properties": {"norad_id": 41772, "name": "SKYSAT-C5", "group": "resource", "lat": -19.968763135835076, "lon": -142.9892819646442, "alt_km": 467.3154502468833, "timestamp": "2025-12-22T05:49:03.139728+00:00", "meta": {"OBJECT_NAME": "SKYSAT-C5", "OBJECT_ID": "2016-058C", "EPOCH": "2025-12-21T14:51:29.604096", "MEAN_MOTION": 15.34022446, "ECCENTRICITY": 0.0003797, "INCLINATION": 97.0743, "RA_OF_ASC_NODE": 38.9998, "ARG_OF_PERICENTER": 248.9964, "MEAN_ANOMALY": 111.0874, "EPHEMERIS_TYPE": 0, "CLASSIFICATION_TYPE": "U", "NORAD_CAT_ID": 41772, "ELEMENT_SET_NO": 999, "REV_AT_EPOCH": 51652, "BSTAR": 0.00022972, "MEAN_MOTION_DOT": 7.489e-05, "MEAN_MOTION_DDOT": 0}, "tle": {"line1": "1 41772U 16058C   25355.61909264  .00007489  00000+0  22972-3 0  9990", "line2": "2 41772  97.0743  38.9998 0003797 248.9964 111.0874 15.34022446516529"}}, "geometry": {"type": "Point", "coordinates": [-142.9892819646442, -19.968763135835076]}}, {"type": "Feature", "properties": {"norad_id": 41773, "name": "SKYSAT-C2", "group": "resource", "lat": -37.367500999805486, "lon": 25.777723390628122, "alt_km": 458.49864161113146, "timestamp": "2025-12-22T05:49:03.139739+00:00", "meta": {"OBJECT_NAME": "SKYSAT-C2", "OBJECT_ID": "2016-058D", "EPOCH": "2025-12-21T14:21:38.666016", "MEAN_MOTION": 15.37454642, "ECCENTRICITY": 0.0003235, "INCLINATION": 97.0345, "RA_OF_ASC_NODE": 19.7499, "ARG_OF_PERICENTER": 8.9758, "MEAN_ANOMALY": 351.1544, "EPHEMERIS_TYPE": 0, "CLASSIFICATION_TYPE": "U", "NORAD_CAT_ID": 41773, "ELEMENT_SET_NO": 999, "REV_AT_EPOCH": 51772, "BSTAR": 0.00025432, "MEAN_MOTION_DOT": 9.266e-05, "MEAN_MOTION_DDOT": 0}, "tle": {"line1": "1 41773U 16058D   25355.59836419  .00009266  00000+0  25432-3 0  9998", "line2": "2 41773  97.0345  19.7499 0003235   8.9758 351.1544 15.37454642517727"}}, "geometry": {"type": "Point", "coordinates": [25.777723390628122, -37.367500999805486]}}, {"type": "Feature", "properties": {"norad_id": 41774, "name": "SKYSAT-C3", "group": "resource", "lat": 35.99703144622485, "lon": 24.4789464022628, "alt_km": 429.35150297978635, "timestamp": "2025-12-22T05:49:03.139749+00:00", "meta": {"OBJECT_NAME": "SKYSAT-C3", "OBJECT_ID": "2016-058E", "EPOCH": "2025-12-21T14:06:49.025088", "MEAN_MOTION": 15.44688941, "ECCENTRICITY": 0.0002032, "INCLINATION": 96.9286, "RA_OF_ASC_NODE": 28.9231, "ARG_OF_PERICENTER": 107.3638, "MEAN_ANOMALY": 252.7834, "EPHEMERIS_TYPE": 0, "CLASSIFICATION_TYPE": "U", "NORAD_CAT_ID": 41774, "ELEMENT_SET_NO": 999, "REV_AT_EPOCH": 51862, "BSTAR": 0.00033448, "MEAN_MOTION_DOT": 0.00015534, "MEAN_MOTION_DDOT": 0}, "tle": {"line1": "1 41774U 16058E   25355.58806742  .00015534  00000+0  33448-3 0  9995", "line2": "2 41774  96.9286  28.9231 0002032 107.3638 252.7834 15.44688941518628"}}, "geometry": {"type": "Point", "coordinates": [24.4789464022628, 35.99703144622485]}}]}